KUIPER-00079            
1 64826U 25151L   25273.50003471  .00045682  00000+0  58847-2 0  9997
2 64826  51.9005 288.6336 0012785  71.1833  21.5838 14.80562292  5810
KUIPER-00080            
1 64827U 25151M   25273.50003471  .00044942  00000+0  58920-2 0  9998
2 64827  51.8989 288.9360 0005804  87.6520  29.2954 14.79873287  1301
KUIPER-00082            
1 64828U 25151N   25273.50003471 -.00826353  00000+0 -41606-1 0  9997
2 64828  51.8861 280.8817 0006993  52.8593  40.1274 15.19485777  5380
KUIPER-00083            
1 64829U 25151P   25273.50003471 -.00947802  00000+0 -89637-1 0  9997
2 64829  51.9047 284.6796 0010806  67.9954 209.6238 14.95939816  5116
KUIPER-00084            
1 64830U 25151Q   25269.51465107  .00004839  00000+0  66410-3 0  9991
2 64830  51.8999 311.4746 0011614  39.9395 320.2420 14.79860769 10923
KUIPER-00085            
1 64831U 25151R   25273.50003471 -.00536101  00000+0 -27773-1 0  9999
2 64831  51.8961 280.9821 0009377  65.6841 278.6036 15.17814152  5620
KUIPER-00086            
1 64832U 25151S   25273.50003471  .00012521  00000+0  13832-2 0  9995
2 64832  51.8964 286.6565 0012116  71.0604 293.5068 14.87681521  2980
KUIPER-00087            
1 64833U 25151T   25273.24721731  .00054768  00000+0  14871-2 0  9996
2 64833  51.8773 280.8765 0007699  60.1988 299.9763 15.37028531 11660
